NORAD_CAT_ID,OBJECT_NAME,OBJECT_TYPE,EPOCH,MEAN_MOTION,ECCENTRICITY,INCLINATION,RA_OF_ASC_NODE,ARG_OF_PERICENTER,MEAN_ANOMALY,BSTAR,MEAN_MOTION_DOT,MEAN_MOTION_DDOT,TLE_LINE0,TLE_LINE1,TLE_LINE2,SEMIMAJOR_AXIS,PERIOD,APOGEE,PERIGEE,DECAYED
55658.0,STARLINK-5307,PAYLOAD,2024-03-05 20:38:21,14.98329892,0.0002861,69.9996,234.585,269.49,90.5931,-0.00011518,-1.467e-05,0.0,0 STARLINK-5307,1 55658U 23021AG  24065.85996657 -.00001467  00000-0 -11518-3 0  9998,2 55658  69.9996 234.5850 0002861 269.4900  90.5931 14.98329892 58570,6950.193,96.107,574.047,570.07,0.0
55658.0,STARLINK-5307,PAYLOAD,2024-03-06 14:15:49,14.98331031,0.000303,69.9995,232.7331,270.887,89.1942,2.4413e-05,1.98e-06,0.0,0 STARLINK-5307,1 55658U 23021AG  24066.59432109  .00000198  00000-0  24413-4 0  9994,2 55658  69.9995 232.7331 0003030 270.8870  89.1942 14.98331031 58983,6950.19,96.107,574.161,569.949,0.0
55658.0,STARLINK-5307,PAYLOAD,2024-03-06 19:04:13,14.98333097,0.0003026,69.9995,232.228,270.8476,89.2337,3.501e-05,3.25e-06,0.0,0 STARLINK-5307,1 55658U 23021AG  24066.79459928  .00000325  00000-0  35010-4 0  9991,2 55658  69.9995 232.2280 0003026 270.8476  89.2337 14.98333097 58712,6950.183,96.107,574.151,569.945,0.0
55658.0,STARLINK-5307,PAYLOAD,2024-03-07 14:17:50,14.98322499,0.0003059,69.9995,230.2083,270.3477,89.7332,1.7197e-05,1.12e-06,0.0,0 STARLINK-5307,1 55658U 23021AG  24067.59572715  .00000112  00000-0  17197-4 0  9990,2 55658  69.9995 230.2083 0003059 270.3477  89.7332 14.98322499 59134,6950.216,96.107,574.207,569.955,0.0
55658.0,STARLINK-5307,PAYLOAD,2024-03-08 12:43:42,14.98336699,0.0003051,69.9997,227.8514,269.8676,90.2134,7.4379e-05,7.95e-06,0.0,0 STARLINK-5307,1 55658U 23021AG  24068.53035689  .00000795  00000-0  74379-4 0  9991,2 55658  69.9997 227.8514 0003051 269.8676  90.2134 14.98336699 58978,6950.172,96.107,574.158,569.917,0.0
55658.0,STARLINK-5307,PAYLOAD,2024-03-08 20:44:22,14.98340915,0.0003059,69.9996,227.0099,269.2024,90.8784,8.5614e-05,9.29e-06,0.0,0 STARLINK-5307,1 55658U 23021AG  24068.86415202  .00000929  00000-0  85614-4 0  9993,2 55658  69.9996 227.0099 0003059 269.2024  90.8784 14.98340915 59329,6950.159,96.106,574.15,569.898,0.0
55658.0,STARLINK-5307,PAYLOAD,2024-03-09 11:09:35,14.98330964,0.0002835,69.9997,225.4945,269.9053,90.1781,1.4747e-05,8.3e-07,0.0,0 STARLINK-5307,1 55658U 23021AG  24069.46499982  .00000083  00000-0  14747-4 0  9997,2 55658  69.9997 225.4945 0002835 269.9053  90.1781 14.98330964 59112,6950.19,96.107,574.025,570.085,0.0
55658.0,STARLINK-5307,PAYLOAD,2024-03-10 11:11:37,14.98331669,0.0002895,70.0001,222.9701,270.7439,89.3388,-0.00011131,-1.421e-05,0.0,0 STARLINK-5307,1 55658U 23021AG  24070.46640267 -.00001421  00000-0 -11131-3 0  9995,2 55658  70.0001 222.9701 0002895 270.7439  89.3388 14.98331669 59269,6950.188,96.107,574.065,570.041,0.0
55658.0,STARLINK-5307,PAYLOAD,2024-03-10 19:12:17,14.9832973,0.0002965,70.0005,222.1294,268.474,91.6079,-0.00010854,-1.388e-05,0.0,0 STARLINK-5307,1 55658U 23021AG  24070.80020335 -.00001388  00000-0 -10854-3 0  9994,2 55658  70.0005 222.1294 0002965 268.4740  91.6079 14.98329730 59617,6950.194,96.107,574.119,569.998,0.0
55658.0,STARLINK-5307,PAYLOAD,2024-03-11 11:13:37,14.98329196,0.000303,70.0008,220.4462,268.2741,91.8071,3.5115e-05,3.26e-06,0.0,0 STARLINK-5307,1 55658U 23021AG  24071.46779987  .00000326  00000-0  35115-4 0  9998,2 55658  70.0008 220.4462 0003030 268.2741  91.8071 14.98329196 59419,6950.195,96.107,574.166,569.954,0.0
55658.0,STARLINK-5307,PAYLOAD,2024-03-12 11:15:39,14.9832611,0.0003052,70.0014,217.921,267.9365,92.1445,5.0059e-05,5.04e-06,0.0,0 STARLINK-5307,1 55658U 23021AG  24072.46920204  .00000504  00000-0  50059-4 0  9991,2 55658  70.0014 217.9210 0003052 267.9365  92.1445 14.98326110 59568,6950.205,96.107,574.191,569.949,0.0
55658.0,STARLINK-5307,PAYLOAD,2024-03-12 16:04:03,14.98329739,0.0003048,70.0007,217.4157,267.4692,92.6118,6.9846e-05,7.4e-06,0.0,0 STARLINK-5307,1 55658U 23021AG  24072.66947948  .00000740  00000-0  69846-4 0  9993,2 55658  70.0007 217.4157 0003048 267.4692  92.6118 14.98329739 59896,6950.194,96.107,574.177,569.94,0.0
55658.0,STARLINK-5307,PAYLOAD,2024-03-13 11:17:39,14.98332593,0.0003148,69.9987,215.395,268.0181,92.0618,3.9359e-05,3.77e-06,0.0,0 STARLINK-5307,1 55658U 23021AG  24073.47059769  .00000377  00000-0  39359-4 0  9990,2 55658  69.9987 215.3950 0003148 268.0181  92.0618 14.98332593 59711,6950.185,96.107,574.238,569.862,0.0
55658.0,STARLINK-5307,PAYLOAD,2024-03-13 19:18:19,14.98335513,0.0003081,69.9987,214.5542,269.8718,90.2088,5.6502e-05,5.81e-06,0.0,0 STARLINK-5307,1 55658U 23021AG  24073.80439488  .00000581  00000-0  56502-4 0  9993,2 55658  69.9987 214.5542 0003081 269.8718  90.2088 14.98335513 60066,6950.176,96.107,574.182,569.899,0.0
55658.0,STARLINK-5307,PAYLOAD,2024-03-14 11:19:40,14.98330738,0.0003142,69.9992,212.871,268.6219,91.458,4.0773e-05,3.94e-06,0.0,0 STARLINK-5307,1 55658U 23021AG  24074.47199690  .00000394  00000-0  40773-4 0  9990,2 55658  69.9992 212.8710 0003142 268.6219  91.4580 14.98330738 59861,6950.191,96.107,574.239,569.872,0.0
55658.0,STARLINK-5307,PAYLOAD,2024-03-14 19:20:20,14.98334843,0.0003119,69.9998,212.0295,268.9487,91.1315,8.3128e-05,8.99e-06,0.0,0 STARLINK-5307,1 55658U 23021AG  24074.80579260  .00000899  00000-0  83128-4 0  9993,2 55658  69.9998 212.0295 0003119 268.9487  91.1315 14.98334843 60216,6950.178,96.107,574.211,569.875,0.0
55658.0,STARLINK-5307,PAYLOAD,2024-03-15 11:21:41,14.98331058,0.00029,70.0006,210.3463,271.8511,88.2316,-6.0979e-05,-8.2e-06,0.0,0 STARLINK-5307,1 55658U 23021AG  24075.47339845 -.00000820  00000-0 -60979-4 0  9995,2 55658  70.0006 210.3463 0002900 271.8511  88.2316 14.98331058 60016,6950.19,96.107,574.07,570.039,0.0
55658.0,STARLINK-5307,PAYLOAD,2024-03-15 19:22:21,14.98329601,0.0002773,70.0013,209.5056,270.3233,89.7609,-4.2441e-05,-5.99e-06,0.0,0 STARLINK-5307,1 55658U 23021AG  24075.80719878 -.00000599  00000-0 -42441-4 0  9997,2 55658  70.0013 209.5056 0002773 270.3233  89.7609 14.98329601 60365,6950.194,96.107,573.986,570.132,0.0
55658.0,STARLINK-5307,PAYLOAD,2024-03-16 12:59:51,14.98324883,0.0002753,70.0012,207.6546,262.6145,97.4701,-5.9107e-05,-7.98e-06,0.0,0 STARLINK-5307,1 55658U 23021AG  24076.54156281 -.00000798  00000-0 -59107-4 0  9990,2 55658  70.0012 207.6546 0002753 262.6145  97.4701 14.98324883 60176,6950.209,96.107,573.987,570.16,0.0
55658.0,STARLINK-5307,PAYLOAD,2024-03-16 14:35:59,14.98324883,0.0002742,70.0013,207.4864,262.9236,97.1611,-5.6571e-05,-7.68e-06,0.0,0 STARLINK-5307,1 55658U 23021AG  24076.60832299 -.00000768  00000-0 -56571-4 0  9996,2 55658  70.0013 207.4864 0002742 262.9236  97.1611 14.98324883 60481,6950.209,96.107,573.979,570.168,0.0
55658.0,STARLINK-5307,PAYLOAD,2024-03-16 17:48:15,14.98324726,0.0002744,70.0014,207.1499,263.7902,96.2945,-5.5864e-05,-7.59e-06,0.0,0 STARLINK-5307,1 55658U 23021AG  24076.74184358 -.00000759  00000-0 -55864-4 0  9991,2 55658  70.0014 207.1499 0002744 263.7902  96.2945 14.98324726 60503,6950.209,96.107,573.981,570.167,0.0
55658.0,STARLINK-5307,PAYLOAD,2024-03-17 13:01:51,14.98329543,0.000293,70.0009,205.1295,264.2859,95.7966,4.9107e-05,4.93e-06,0.0,0 STARLINK-5307,1 55658U 23021AG  24077.54295830  .00000493  00000-0  49107-4 0  9994,2 55658  70.0009 205.1295 0002930 264.2859  95.7966 14.98329543 60322,6950.194,96.107,574.096,570.023,0.0
55658.0,STARLINK-5307,PAYLOAD,2024-03-17 14:37:59,14.9832877,0.0002951,70.0009,204.9611,263.869,96.2133,3.8979e-05,3.72e-06,0.0,0 STARLINK-5307,1 55658U 23021AG  24077.60971909  .00000372  00000-0  38979-4 0  9990,2 55658  70.0009 204.9611 0002951 263.8690  96.2133 14.98328770 60639,6950.197,96.107,574.113,570.011,0.0
55658.0,STARLINK-5307,PAYLOAD,2024-03-17 17:50:15,14.98330846,0.000292,70.0009,204.6245,262.7506,97.3321,6.3128e-05,6.6e-06,0.0,0 STARLINK-5307,1 55658U 23021AG  24077.74323707  .00000660  00000-0  63128-4 0  9996,2 55658  70.0009 204.6245 0002920 262.7506  97.3321 14.98330846 60659,6950.19,96.107,574.085,570.026,0.0
55658.0,STARLINK-5307,PAYLOAD,2024-03-18 11:27:44,14.98327767,0.0003082,70.0006,202.7727,268.5791,91.5015,6.0079e-05,6.24e-06,0.0,0 STARLINK-5307,1 55658U 23021AG  24078.47759952  .00000624  00000-0  60079-4 0  9994,2 55658  70.0006 202.7727 0003082 268.5791  91.5015 14.98327767 60766,6950.2,96.107,574.207,569.923,0.0
55658.0,STARLINK-5307,PAYLOAD,2024-03-18 17:52:16,14.98332045,0.0003037,70.0007,202.0997,269.4312,90.6499,0.00010444,1.153e-05,0.0,0 STARLINK-5307,1 55658U 23021AG  24078.74463562  .00001153  00000-0  10444-3 0  9991,2 55658  70.0007 202.0997 0003037 269.4312  90.6499 14.98332045 60501,6950.187,96.107,574.162,569.941,0.0
55658.0,STARLINK-5307,PAYLOAD,2024-03-19 11:29:44,14.98325905,0.0003034,70.0006,200.2466,272.3301,87.751,0.00024608,2.844e-05,0.0,0 STARLINK-5307,1 55658U 23021AG  24079.47899281  .00002844  00000-0  24608-3 0  9998,2 55658  70.0006 200.2466 0003034 272.3301  87.7510 14.98325905 60912,6950.206,96.107,574.179,569.962,0.0
55658.0,STARLINK-5307,PAYLOAD,2024-03-19 13:05:50,14.98361281,0.0003152,70.0002,200.0783,267.0832,92.9967,0.00033826,3.949e-05,0.0,0 STARLINK-5307,1 55658U 23021AG  24079.54572843  .00003949  00000-0  33826-3 0  9997,2 55658  70.0002 200.0783 0003152 267.0832  92.9967 14.98361281 60628,6950.096,96.105,574.152,569.77,0.0
55658.0,STARLINK-5307,PAYLOAD,2024-03-20 09:55:38,14.98323912,0.0003154,70.0004,197.8907,275.7711,84.3088,-0.00012717,-1.61e-05,0.0,0 STARLINK-5307,1 55658U 23021AG  24080.41364391 -.00001610  00000-0 -12717-3 0  9993,2 55658  70.0004 197.8907 0003154 275.7711  84.3088 14.98323912 60757,6950.212,96.107,574.269,569.885,0.0
55658.0,STARLINK-5307,PAYLOAD,2024-03-20 11:31:46,14.98323592,0.0003208,69.9999,197.7219,274.569,85.5103,-0.00013842,-1.744e-05,0.0,0 STARLINK-5307,1 55658U 23021AG  24080.48040453 -.00001744  00000-0 -13842-3 0  9998,2 55658  69.9999 197.7219 0003208 274.5690  85.5103 14.98323592 61065,6950.213,96.107,574.307,569.848,0.0
